NORAD_CAT_ID,OBJECT_NAME,OBJECT_TYPE,EPOCH,MEAN_MOTION,ECCENTRICITY,INCLINATION,RA_OF_ASC_NODE,ARG_OF_PERICENTER,MEAN_ANOMALY,BSTAR,MEAN_MOTION_DOT,MEAN_MOTION_DDOT,TLE_LINE0,TLE_LINE1,TLE_LINE2,SEMIMAJOR_AXIS,PERIOD,APOGEE,PERIGEE,DECAYED
54788.0,STARLINK-5399,PAYLOAD,2023-04-08 08:55:30,15.08844556,0.0001215,53.2148,135.8684,87.974,272.1391,0.00031538,4.736e-05,0.0,0 STARLINK-5399,1 54788U 22175AG  23098.37187523  .00004736  00000-0  31538-3 0  9990,2 54788  53.2148 135.8684 0001215  87.9740 272.1391 15.08844556 19153,6917.866,95.437,540.572,538.891,0.0
54788.0,STARLINK-5399,PAYLOAD,2023-04-09 02:24:44,15.08839399,0.0001261,53.2149,132.5972,102.9153,257.198,0.0001604,2.266e-05,0.0,0 STARLINK-5399,1 54788U 22175AG  23099.10051757  .00002266  00000-0  16040-3 0  9998,2 54788  53.2149 132.5972 0001261 102.9153 257.1980 15.08839399 17104,6917.882,95.438,540.62,538.875,0.0
54788.0,STARLINK-5399,PAYLOAD,2023-04-09 08:46:17,15.08837769,0.0001267,53.2154,131.407,103.1515,256.9619,0.0002269,3.325e-05,0.0,0 STARLINK-5399,1 54788U 22175AG  23099.36547872  .00003325  00000-0  22690-3 0  9999,2 54788  53.2154 131.4070 0001267 103.1515 256.9619 15.08837769 19307,6917.887,95.438,540.629,538.876,0.0
54788.0,STARLINK-5399,PAYLOAD,2023-04-09 13:32:26,15.08835025,0.0001318,53.215,130.5151,111.5318,248.5815,0.00046999,7.199e-05,0.0,0 STARLINK-5399,1 54788U 22175AG  23099.56420033  .00007199  00000-0  46999-3 0  9991,2 54788  53.2150 130.5151 0001318 111.5318 248.5815 15.08835025 19335,6917.896,95.438,540.672,538.849,0.0
54788.0,STARLINK-5399,PAYLOAD,2023-04-10 05:26:18,15.08846995,0.0001301,53.2153,127.5419,100.5208,259.5931,0.00048314,7.411e-05,0.0,0 STARLINK-5399,1 54788U 22175AG  23100.22659932  .00007411  00000-0  48314-3 0  9999,2 54788  53.2153 127.5419 0001301 100.5208 259.5931 15.08846995 17279,6917.859,95.437,540.624,538.824,0.0
54788.0,STARLINK-5399,PAYLOAD,2023-04-10 13:23:13,15.08854505,0.0001334,53.2156,126.0547,102.7897,257.3244,0.00060385,9.339e-05,0.0,0 STARLINK-5399,1 54788U 22175AG  23100.55779652  .00009339  00000-0  60385-3 0  9990,2 54788  53.2156 126.0547 0001334 102.7897 257.3244 15.08854505 19486,6917.836,95.437,540.624,538.778,0.0
54788.0,STARLINK-5399,PAYLOAD,2023-04-10 18:09:22,15.08858599,0.0001316,53.2158,125.1624,99.2106,260.9035,0.00060877,9.419e-05,0.0,0 STARLINK-5399,1 54788U 22175AG  23100.75651415  .00009419  00000-0  60877-3 0  9993,2 54788  53.2158 125.1624 0001316  99.2106 260.9035 15.08858599 19516,6917.824,95.436,540.599,538.778,0.0
54788.0,STARLINK-5399,PAYLOAD,2023-04-11 10:03:14,15.08844581,0.0001384,53.2166,122.1895,100.9135,259.2013,0.00014573,2.032e-05,0.0,0 STARLINK-5399,1 54788U 22175AG  23101.41891680  .00002032  00000-0  14573-3 0  9993,2 54788  53.2166 122.1895 0001384 100.9135 259.2013 15.08844581 19613,6917.866,95.437,540.689,538.774,0.0
54788.0,STARLINK-5399,PAYLOAD,2023-04-11 18:00:10,15.08840322,0.0001268,53.2156,120.7034,93.3799,266.7338,3.1992e-05,2.21e-06,0.0,0 STARLINK-5399,1 54788U 22175AG  23101.75011845  .00000221  00000-0  31992-4 0  9990,2 54788  53.2156 120.7034 0001268  93.3799 266.7338 15.08840322 19660,6917.879,95.438,540.622,538.867,0.0
54788.0,STARLINK-5399,PAYLOAD,2023-04-12 01:57:06,15.0883745,0.0001291,53.2159,119.2165,98.5903,261.5235,8.5726e-06,-1.51e-06,0.0,0 STARLINK-5399,1 54788U 22175AG  23102.08132082 -.00000151  00000-0  85726-5 0  9992,2 54788  53.2159 119.2165 0001291  98.5903 261.5235 15.08837450 17554,6917.888,95.438,540.646,538.86,0.0
54788.0,STARLINK-5399,PAYLOAD,2023-04-12 08:18:38,15.08837349,0.0001283,53.2163,118.0272,101.4717,258.6419,-2.9541e-05,-7.58e-06,0.0,0 STARLINK-5399,1 54788U 22175AG  23102.34628061 -.00000758  00000-0 -29541-4 0  9994,2 54788  53.2163 118.0272 0001283 101.4717 258.6419 15.08837349 19755,6917.888,95.438,540.641,538.866,0.0
54788.0,STARLINK-5399,PAYLOAD,2023-04-13 09:44:49,15.08839295,0.0001212,53.2174,113.2696,99.8656,260.2473,6.4709e-05,7.42e-06,0.0,0 STARLINK-5399,1 54788U 22175AG  23103.40612436  .00000742  00000-0  64709-4 0  9997,2 54788  53.2174 113.2696 0001212  99.8656 260.2473 15.08839295 19917,6917.883,95.438,540.586,538.909,0.0
54788.0,STARLINK-5399,PAYLOAD,2023-04-13 17:41:44,15.08838718,0.0001177,53.2176,111.7826,92.1813,267.9314,8.3369e-05,1.039e-05,0.0,0 STARLINK-5399,1 54788U 22175AG  23103.73732494  .00001039  00000-0  83369-4 0  9993,2 54788  53.2176 111.7826 0001177  92.1813 267.9314 15.08838718 17801,6917.884,95.438,540.564,538.935,0.0
54788.0,STARLINK-5399,PAYLOAD,2023-04-14 08:00:12,15.08844558,0.0001137,53.2172,109.1059,92.6083,267.5039,0.00014676,2.049e-05,0.0,0 STARLINK-5399,1 54788U 22175AG  23104.33348117  .00002049  00000-0  14676-3 0  9991,2 54788  53.2172 109.1059 0001137  92.6083 267.5039 15.08844558 20056,6917.866,95.437,540.518,538.945,0.0
54788.0,STARLINK-5399,PAYLOAD,2023-04-15 04:40:13,15.08839035,0.0001035,53.216,105.2397,90.7723,269.3388,0.00011384,1.524e-05,0.0,0 STARLINK-5399,1 54788U 22175AG  23105.19460640  .00001524  00000-0  11384-3 0  9992,2 54788  53.2160 105.2397 0001035  90.7723 269.3388 15.08839035 18027,6917.883,95.438,540.464,539.032,0.0
54788.0,STARLINK-5399,PAYLOAD,2023-04-15 09:26:23,15.08842058,0.0001089,53.2162,104.3474,91.3063,268.8054,9.6943e-05,1.255e-05,0.0,0 STARLINK-5399,1 54788U 22175AG  23105.39332480  .00001255  00000-0  96943-4 0  9990,2 54788  53.2162 104.3474 0001089  91.3063 268.8054 15.08842058 20215,6917.874,95.437,540.492,538.986,0.0
54788.0,STARLINK-5399,PAYLOAD,2023-04-15 17:23:18,15.08844742,0.000117,53.217,102.8612,88.1197,271.993,9.3469e-05,1.2e-05,0.0,0 STARLINK-5399,1 54788U 22175AG  23105.72452301  .00001200  00000-0  93469-4 0  9992,2 54788  53.2170 102.8612 0001170  88.1197 271.9930 15.08844742 20269,6917.866,95.437,540.54,538.922,0.0
54788.0,STARLINK-5399,PAYLOAD,2023-04-16 09:17:09,15.08853058,0.000142,53.2168,99.8873,94.7605,265.355,4.3082e-05,3.98e-06,0.0,0 STARLINK-5399,1 54788U 22175AG  23106.38691709  .00000398  00000-0  43082-4 0  9995,2 54788  53.2168  99.8873 0001420  94.7605 265.3550 15.08853058 18201,6917.84,95.437,540.688,538.723,0.0
54788.0,STARLINK-5399,PAYLOAD,2023-04-17 04:21:48,15.08837991,0.0001061,53.2165,96.3181,94.24,265.8713,8.9139e-05,1.131e-05,0.0,0 STARLINK-5399,1 54788U 22175AG  23107.18180680  .00001131  00000-0  89139-4 0  9994,2 54788  53.2165  96.3181 0001061  94.2400 265.8713 15.08837991 18328,6917.887,95.438,540.486,539.018,0.0
54788.0,STARLINK-5399,PAYLOAD,2023-04-17 07:32:34,15.0884152,0.0001247,53.2176,95.724,108.453,251.6598,5.5357e-05,5.93e-06,0.0,0 STARLINK-5399,1 54788U 22175AG  23107.31428513  .00000593  00000-0  55357-4 0  9995,2 54788  53.2176  95.7240 0001247 108.4530 251.6598 15.08841520 20507,6917.876,95.437,540.603,538.878,0.0
54788.0,STARLINK-5399,PAYLOAD,2023-04-18 08:58:44,15.08845177,0.0001285,53.2163,90.9676,122.3717,237.7399,0.00011305,1.512e-05,0.0,0 STARLINK-5399,1 54788U 22175AG  23108.37412333  .00001512  00000-0  11305-3 0  9991,2 54788  53.2163  90.9676 0001285 122.3717 237.7399 15.08845177 18500,6917.865,95.437,540.619,538.841,0.0
54788.0,STARLINK-5399,PAYLOAD,2023-04-18 15:20:17,15.08839133,0.0001134,53.2168,89.7771,88.7748,271.3374,-6.8849e-06,-3.97e-06,0.0,0 STARLINK-5399,1 54788U 22175AG  23108.63908709 -.00000397  00000-0 -68849-5 0  9996,2 54788  53.2168  89.7771 0001134  88.7748 271.3374 15.08839133 20706,6917.883,95.438,540.533,538.964,0.0
54788.0,STARLINK-5399,PAYLOAD,2023-04-19 08:49:32,15.08835865,0.0001272,53.2173,86.5084,108.1813,251.9318,8.837e-05,1.119e-05,0.0,0 STARLINK-5399,1 54788U 22175AG  23109.36773347  .00001119  00000-0  88370-4 0  9996,2 54788  53.2173  86.5084 0001272 108.1813 251.9318 15.08835865 20819,6917.893,95.438,540.638,538.878,0.0
54788.0,STARLINK-5399,PAYLOAD,2023-04-20 07:04:55,15.08847822,0.0001167,53.2173,82.3444,103.1921,256.9201,0.00018099,2.594e-05,0.0,0 STARLINK-5399,1 54788U 22175AG  23110.29508951  .00002594  00000-0  18099-3 0  9995,2 54788  53.2173  82.3444 0001167 103.1921 256.9201 15.08847822 20958,6917.856,95.437,540.529,538.914,0.0
54788.0,STARLINK-5399,PAYLOAD,2023-04-20 15:01:51,15.08838383,0.000146,53.2167,80.8562,84.7701,275.3458,0.00011134,1.484e-05,0.0,0 STARLINK-5399,1 54788U 22175AG  23110.62629524  .00001484  00000-0  11134-3 0  9992,2 54788  53.2167  80.8562 0001460  84.7701 275.3458 15.08838383 18847,6917.885,95.438,540.76,538.74,0.0
54788.0,STARLINK-5399,PAYLOAD,2023-04-21 02:09:34,15.08831156,0.0001585,53.2176,78.7768,88.4894,271.6279,6.5186e-05,7.49e-06,0.0,0 STARLINK-5399,1 54788U 22175AG  23111.08998231  .00000749  00000-0  65186-4 0  9997,2 54788  53.2176  78.7768 0001585  88.4894 271.6279 15.08831156 18912,6917.907,95.438,540.869,538.676,0.0
54788.0,STARLINK-5399,PAYLOAD,2023-04-21 05:20:20,15.08829293,0.0001234,53.2171,78.1826,86.2575,273.8558,1.4989e-06,-2.64e-06,0.0,0 STARLINK-5399,1 54788U 22175AG  23111.22246294 -.00000264  00000-0  14989-5 0  9997,2 54788  53.2171  78.1826 0001234  86.2575 273.8558 15.08829293 21095,6917.913,95.438,540.632,538.924,0.0
54788.0,STARLINK-5399,PAYLOAD,2023-04-21 14:52:39,15.08841135,0.0001132,53.2172,76.3969,88.573,271.5391,0.00014509,2.022e-05,0.0,0 STARLINK-5399,1 54788U 22175AG  23111.61989796  .00002022  00000-0  14509-3 0  9990,2 54788  53.2172  76.3969 0001132  88.5730 271.5391 15.08841135 18993,6917.877,95.437,540.525,538.959,0.0
54788.0,STARLINK-5399,PAYLOAD,2023-04-22 06:46:29,15.08855719,0.0001109,53.2161,73.4233,85.9013,274.2106,0.00038653,5.872e-05,0.0,0 STARLINK-5399,1 54788U 22175AG  23112.28229110  .00005872  00000-0  38653-3 0  9993,2 54788  53.2161  73.4233 0001109  85.9013 274.2106 15.08855719 21252,6917.832,95.437,540.465,538.93,0.0
54788.0,STARLINK-5399,PAYLOAD,2023-04-22 14:43:25,15.0885139,9.91e-05,53.2158,71.9374,85.4486,274.6619,0.00027453,4.085e-05,0.0,0 STARLINK-5399,1 54788U 22175AG  23112.61349095  .00004085  00000-0  27453-3 0  9996,2 54788  53.2158  71.9374 0000991  85.4486 274.6619 15.08851390 19143,6917.846,95.437,540.396,539.025,0.0
